H1 CPF 01  gfz 2021 06 24 00  6751 terrasarx 
H2 0702601  6201 31698    2021 06 24 00 59 42 2021 06 29 00 00 42   120 1 1  0 0 0
H9
10 0 59390  16542.000000  0    6070135.113   2647296.051   1891666.503
10 0 59390  16662.000000  0    6316796.984   2556047.547   1007857.031
10 0 59390  16782.000000  0    6451023.533   2416784.828    106304.549
10 0 59390  16902.000000  0    6469711.368   2233953.432   -797119.638
10 0 59390  17022.000000  0    6371881.096   2012800.536  -1686526.712
10 0 59390  17142.000000  0    6158703.797   1759243.308  -2546295.836
10 0 59390  17262.000000  0    5833484.187   1479724.252  -3361356.160
10 0 59390  17382.000000  0    5401600.018   1181057.143  -4117454.530
10 0 59390  17502.000000  0    4870400.741    870268.667  -4801404.740
10 0 59390  17622.000000  0    4249069.593    554440.288  -5401312.274
10 0 59390  17742.000000  0    3548454.500    240553.450  -5906772.971
10 0 59390  17862.000000  0    2780870.413    -64658.340  -6309043.805
10 0 59390  17982.000000  0    1959876.960   -354848.146  -6601182.703
10 0 59390  18102.000000  0    1100038.448   -624182.428  -6778156.946
10 0 59390  18222.000000  0     216667.589   -867454.071  -6836922.059
10 0 59390  18342.000000  0    -674443.150  -1080179.143  -6776467.198
10 0 59390  18462.000000  0   -1557296.498  -1258676.974  -6597830.620
10 0 59390  18582.000000  0   -2415971.366  -1400132.537  -6304084.222
10 0 59390  18702.000000  0   -3234903.506  -1502639.957  -5900285.176
10 0 59390  18822.000000  0   -3999162.453  -1565227.211  -5393399.104
10 0 59390  18942.000000  0   -4694724.686  -1587861.614  -4792192.002
10 0 59390  19062.000000  0   -5308734.626  -1571435.110  -4107089.577
10 0 59390  19182.000000  0   -5829749.387  -1517729.875  -3350007.195
10 0 59390  19302.000000  0   -6247962.721  -1429364.664  -2534150.376
10 0 59390  19422.000000  0   -6555401.292  -1309722.194  -1673788.464
10 0 59390  19542.000000  0   -6746088.654  -1162859.372   -784005.644
10 0 59390  19662.000000  0   -6816172.505   -993402.021    119567.157
10 0 59390  19782.000000  0   -6764010.003   -806425.656   1021033.558
10 0 59390  19902.000000  0   -6590209.088   -607327.097   1904519.678
10 0 59390  20022.000000  0   -6297624.272   -401689.419   2754462.866
10 0 59390  20142.000000  0   -5891307.137   -195143.386   3555894.503
10 0 59390  20262.000000  0   -5378411.997      6770.952   4294710.631
10 0 59390  20382.000000  0   -4768059.889    198738.015   4957923.637
10 0 59390  20502.000000  0   -4071166.039    375793.510   5533890.040
10 0 59390  20622.000000  0   -3300235.626    533441.415   6012512.471
10 0 59390  20742.000000  0   -2469130.467    667757.608   6385412.482
10 0 59390  20862.000000  0   -1592813.318    775478.525   6646071.709
10 0 59390  20982.000000  0    -687073.546    854074.158   6789939.747
10 0 59390  21102.000000  0     231758.668    901802.956   6814507.420
10 0 59390  21222.000000  0    1147105.901    917748.086   6719347.334
10 0 59390  21342.000000  0    2042441.298    901835.099   6506120.973
10 0 59390  21462.000000  0    2901585.921    854830.068   6178551.750
10 0 59390  21582.000000  0    3709002.056    778318.272   5742364.814
10 0 59390  21702.000000  0    4450077.099    674664.084   5205191.897
10 0 59390  21822.000000  0    5111392.274    546952.077   4576444.353
10 0 59390  21942.000000  0    5680973.915    398910.427   3867154.792
10 0 59390  22062.000000  0    6148520.620    234819.477   3089786.383
10 0 59390  22182.000000  0    6505599.540     59406.633   2258013.406
10 0 59390  22302.000000  0    6745807.272   -122271.912   1386478.967
10 0 59390  22422.000000  0    6864893.405   -304957.471    490532.268
10 0 59390  22542.000000  0    6860840.875   -483320.346   -414049.229
10 0 59390  22662.000000  0    6733901.189   -652094.331  -1311347.278
10 0 59390  22782.000000  0    6486583.248   -806209.905  -2185591.560
10 0 59390  22902.000000  0    6123596.809   -940922.615  -3021444.194
10 0 59390  23022.000000  0    5651752.758  -1051933.711  -3804273.140
10 0 59390  23142.000000  0    5079823.261  -1135499.661  -4520409.441
10 0 59390  23262.000000  0    4418366.295  -1188527.759  -5157382.768
10 0 59390  23382.000000  0    3679520.069  -1208656.836  -5704132.466
10 0 59390  23502.000000  0    2876770.933  -1194321.578  -6151190.590
10 0 59390  23622.000000  0    2024701.601  -1144798.103  -6490834.576
10 0 59390  23742.000000  0    1138724.558  -1060230.227  -6717209.573
10 0 59390  23862.000000  0     234805.151   -941638.094  -6826419.240
10 0 59390  23982.000000  0    -670821.593   -790907.357  -6816585.476
10 0 59390  24102.000000  0   -1561935.585   -610759.790  -6687877.038
10 0 59390  24222.000000  0   -2422615.971   -404705.164  -6442506.991
10 0 59390  24342.000000  0   -3237518.945   -176975.596  -6084697.478
10 0 59390  24462.000000  0   -3992145.985     67556.906  -5620615.765
10 0 59390  24582.000000  0   -4673102.158    323478.941  -5058278.825
10 0 59390  24702.000000  0   -5268336.537    584947.952  -4407426.169
10 0 59390  24822.000000  0   -5767363.454    845817.545  -3679363.330
10 0 59390  24942.000000  0   -6161458.055   1099773.740  -2886774.312
10 0 59390  25062.000000  0   -6443821.215   1340478.452  -2043506.385
10 0 59390  25182.000000  0   -6609709.579   1561716.812  -1164330.473
10 0 59390  25302.000000  0   -6656527.803   1757546.088   -264680.309
10 0 59390  25422.000000  0   -6583877.199   1922440.200    639625.179
10 0 59390  25542.000000  0   -6393560.060   2051427.634   1532667.227
10 0 59390  25662.000000  0   -6089540.549   2140219.538   2398716.235
10 0 59390  25782.000000  0   -5677861.390   2185323.820   3222517.931
10 0 59390  25902.000000  0   -5166518.773   2184141.498   3989569.938
10 0 59390  26022.000000  0   -4565298.662   2135043.475   4686381.696
10 0 59390  26142.000000  0   -3885580.567   2037426.477   5300712.630
10 0 59390  26262.000000  0   -3140114.161   1891747.112   5821785.659
10 0 59390  26382.000000  0   -2342772.431   1699533.691   6240473.838
10 0 59390  26502.000000  0   -1508286.006   1463374.431   6549455.004
10 0 59390  26622.000000  0    -651966.286   1186882.914   6743332.840
10 0 59390  26742.000000  0     210576.564    874642.317   6818724.165
10 0 59390  26862.000000  0    1063717.300    532128.869   6774314.062
10 0 59390  26982.000000  0    1892097.371    165616.093   6610877.202
10 0 59390  27102.000000  0    2680900.127   -217939.225   6331265.789
10 0 59390  27222.000000  0    3416116.351   -611028.104   5940364.145
10 0 59390  27342.000000  0    4084795.831  -1005734.593   5445008.310
10 0 59390  27462.000000  0    4675279.689  -1393893.823   4853872.288
10 0 59390  27582.000000  0    5177409.858  -1767259.328   4177322.269
10 0 59390  27702.000000  0    5582712.742  -2117676.113   3427239.455
10 0 59390  27822.000000  0    5884551.294  -2437257.129   2616812.701
10 0 59390  27942.000000  0    6078241.024  -2718558.095   1760305.281
10 0 59390  28062.000000  0    6161128.737  -2954746.017    872800.660
10 0 59390  28182.000000  0    6132631.202  -3139758.310    -30070.276
10 0 59390  28302.000000  0    5994231.035  -3268447.115   -932412.661
10 0 59390  28422.000000  0    5749431.129  -3336705.659  -1818357.520
10 0 59390  28542.000000  0    5403666.796  -3341572.380  -2672348.644
10 0 59390  28662.000000  0    4964181.778  -3281311.793  -3479421.186
10 0 59390  28782.000000  0    4439869.465  -3155469.803  -4225466.568
10 0 59390  28902.000000  0    3841084.621  -2964903.052  -4897478.375
10 0 59390  29022.000000  0    3179429.658  -2711780.444  -5483774.249
10 0 59390  29142.000000  0    2467523.280  -2399558.730  -5974189.403
10 0 59390  29262.000000  0    1718757.339  -2032934.492  -6360242.597
10 0 59390  29382.000000  0     947043.594  -1617771.133  -6635273.579
10 0 59390  29502.000000  0     166556.055  -1161002.733  -6794546.847
10 0 59390  29622.000000  0    -608525.187   -670518.598  -6835323.860
10 0 59390  29742.000000  0   -1364265.419   -155029.433  -6756904.440
10 0 59390  29862.000000  0   -2087220.271    376083.818  -6560637.214
10 0 59390  29982.000000  0   -2764669.195    912936.137  -6249898.192
10 0 59390  30102.000000  0   -3384834.686   1445317.414  -5830039.309
10 0 59390  30222.000000  0   -3937086.081   1962881.988  -5308306.887
10 0 59390  30342.000000  0   -4412125.226   2455346.692  -4693728.437
10 0 59390  30462.000000  0   -4802148.648   2912694.200  -3996966.817
10 0 59390  30582.000000  0   -5100982.710   3325375.902  -3230144.849
10 0 59390  30702.000000  0   -5304190.524   3684512.166  -2406642.757
10 0 59390  30822.000000  0   -5409145.913   3982084.947  -1540868.420
10 0 59390  30942.000000  0   -5415073.135   4211117.056   -648005.525
10 0 59390  31062.000000  0   -5323049.948   4365833.856    256256.550
10 0 59390  31182.000000  0   -5135973.323   4441803.423   1156005.914
10 0 59390  31302.000000  0   -4858486.721   4436048.966   2035397.836
10 0 59390  31422.000000  0   -4496872.046   4347131.870   2878942.705
10 0 59390  31542.000000  0   -4058908.890   4175204.289   3671786.570
10 0 59390  31662.000000  0   -3553705.116   3922028.489   4399978.611
10 0 59390  31782.000000  0   -2991503.911   3590963.253   5050719.646
10 0 59390  31902.000000  0   -2383471.101   3186917.854   5612587.622
10 0 59390  32022.000000  0   -1741468.260   2716275.344   6075735.487
10 0 59390  32142.000000  0   -1077816.675   2186786.815   6432058.809
10 0 59390  32262.000000  0    -405058.439   1607438.992   6675329.772
10 0 59390  32382.000000  0     264279.952    988299.357   6801300.231
10 0 59390  32502.000000  0     917920.763    340339.811   6807771.189
10 0 59390  32622.000000  0    1544059.080   -324757.175   6694628.450
10 0 59390  32742.000000  0    2131575.097   -994808.477   6463845.334
10 0 59390  32862.000000  0    2670231.378  -1657352.797   6119450.706
10 0 59390  32982.000000  0    3150853.144  -2299882.023   5667464.068
99
